[{"OBJECT_NAME":"STARLINK-31506","OBJECT_ID":"2024-050F","EPOCH":"2026-03-09T12:39:16.005312","MEAN_MOTION":15.30189757,"ECCENTRICITY":0.00011193,"INCLINATION":53.1599,"RA_OF_ASC_NODE":181.7519,"ARG_OF_PERICENTER":59.1247,"MEAN_ANOMALY":300.9864,"EPHEMERIS_TYPE":0,"CLASSIFICATION_TYPE":"U","NORAD_CAT_ID":59259,"ELEMENT_SET_NO":999,"REV_AT_EPOCH":11052,"BSTAR":7.782328e-6,"MEAN_MOTION_DOT":-1.29e-6,"MEAN_MOTION_DDOT":0},{"OBJECT_NAME":"YAM-7","OBJECT_ID":"2024-149AN","EPOCH":"2026-03-09T17:13:55.117920","MEAN_MOTION":15.30304554,"ECCENTRICITY":0.00019733,"INCLINATION":97.3828,"RA_OF_ASC_NODE":149.4631,"ARG_OF_PERICENTER":296.5121,"MEAN_ANOMALY":63.5918,"EPHEMERIS_TYPE":0,"CLASSIFICATION_TYPE":"U","NORAD_CAT_ID":60504,"ELEMENT_SET_NO":999,"REV_AT_EPOCH":8683,"BSTAR":0.00030984439,"MEAN_MOTION_DOT":9.009e-5,"MEAN_MOTION_DDOT":0}]
