STARLINK-31506          
1 59259U 24050F   26068.52726858 -.00000129  00000+0  77823-5 0  9990
2 59259  53.1599 181.7519 0001119  59.1247 300.9864 15.30189757110521
YAM-7                   
1 60504U 24149AN  26068.71799904  .00009009  00000+0  30984-3 0  9997
2 60504  97.3828 149.4631 0001973 296.5121  63.5918 15.30304554 86835
